{
  "links" : {
    "next" : "https://api.nasa.gov/neo/rest/v1/feed?start_date=2006-04-09&end_date=2006-04-09&detailed=true&api_key=t0TVs3DtDT2H8Oy2Zy8m2eVrNsAVKAexjcZXUckd",
    "prev" : "https://api.nasa.gov/neo/rest/v1/feed?start_date=2006-04-07&end_date=2006-04-07&detailed=true&api_key=t0TVs3DtDT2H8Oy2Zy8m2eVrNsAVKAexjcZXUckd",
    "self" : "https://api.nasa.gov/neo/rest/v1/feed?start_date=2006-04-08&end_date=2006-04-08&detailed=true&api_key=t0TVs3DtDT2H8Oy2Zy8m2eVrNsAVKAexjcZXUckd"
  },
  "element_count" : 8,
  "near_earth_objects" : {
    "2006-04-08" : [ {
      "links" : {
        "self" : "https://api.nasa.gov/neo/rest/v1/neo/2101955?api_key=t0TVs3DtDT2H8Oy2Zy8m2eVrNsAVKAexjcZXUckd"
      },
      "neo_reference_id" : "2101955",
      "name" : "101955 Bennu (1999 RQ36)",
      "nasa_jpl_url" : "http://ssd.jpl.nasa.gov/sbdb.cgi?sstr=2101955",
      "absolute_magnitude_h" : 20.19,
      "estimated_diameter" : {
        "kilometers" : {
          "estimated_diameter_min" : 0.2435314063,
          "estimated_diameter_max" : 0.5445527791
        },
        "meters" : {
          "estimated_diameter_min" : 243.5314062744,
          "estimated_diameter_max" : 544.5527790857
        },
        "miles" : {
          "estimated_diameter_min" : 0.1513233534,
          "estimated_diameter_max" : 0.3383693049
        },
        "feet" : {
          "estimated_diameter_min" : 798.9875789614,
          "estimated_diameter_max" : 1786.5905397357
        }
      },
      "is_potentially_hazardous_asteroid" : true,
      "close_approach_data" : [ {
        "close_approach_date" : "2006-04-08",
        "epoch_date_close_approach" : 1144479600000,
        "relative_velocity" : {
          "kilometers_per_second" : "5.8941390182",
          "kilometers_per_hour" : "21218.9004654047",
          "miles_per_hour" : "13184.59956974"
        },
        "miss_distance" : {
          "astronomical" : "0.2791466022",
          "lunar" : "108.5880355835",
          "kilometers" : "41759740",
          "miles" : "25948298"
        },
        "orbiting_body" : "Earth"
      } ],
      "orbital_data" : {
        "orbit_id" : "95",
        "orbit_determination_date" : "2017-09-02 06:19:55",
        "orbit_uncertainty" : "0",
        "minimum_orbit_intersection" : ".0032228",
        "jupiter_tisserand_invariant" : "5.525",
        "epoch_osculation" : "2455562.5",
        "eccentricity" : ".2037451095574896",
        "semi_major_axis" : "1.126391026024589",
        "inclination" : "6.034939391321328",
        "ascending_node_longitude" : "2.060867570687039",
        "orbital_period" : "436.6487281874828",
        "perihelion_distance" : ".896894363022636",
        "perihelion_argument" : "66.22306847249314",
        "aphelion_distance" : "1.355887689026542",
        "perihelion_time" : "2455439.141945873525",
        "mean_anomaly" : "101.7039478618686",
        "mean_motion" : ".8244613501895456",
        "equinox" : "J2000"
      }
    }, {
      "links" : {
        "self" : "https://api.nasa.gov/neo/rest/v1/neo/2190135?api_key=t0TVs3DtDT2H8Oy2Zy8m2eVrNsAVKAexjcZXUckd"
      },
      "neo_reference_id" : "2190135",
      "name" : "190135 (2005 QE30)",
      "nasa_jpl_url" : "http://ssd.jpl.nasa.gov/sbdb.cgi?sstr=2190135",
      "absolute_magnitude_h" : 17.2,
      "estimated_diameter" : {
        "kilometers" : {
          "estimated_diameter_min" : 0.9650614696,
          "estimated_diameter_max" : 2.1579430484
        },
        "meters" : {
          "estimated_diameter_min" : 965.0614695789,
          "estimated_diameter_max" : 2157.9430484443
        },
        "miles" : {
          "estimated_diameter_min" : 0.5996612104,
          "estimated_diameter_max" : 1.34088323
        },
        "feet" : {
          "estimated_diameter_min" : 3166.2122718533,
          "estimated_diameter_max" : 7079.8658710581
        }
      },
      "is_potentially_hazardous_asteroid" : false,
      "close_approach_data" : [ {
        "close_approach_date" : "2006-04-08",
        "epoch_date_close_approach" : 1144479600000,
        "relative_velocity" : {
          "kilometers_per_second" : "17.6494764813",
          "kilometers_per_hour" : "63538.1153325007",
          "miles_per_hour" : "39480.1139409086"
        },
        "miss_distance" : {
          "astronomical" : "0.1101069956",
          "lunar" : "42.8316230774",
          "kilometers" : "16471772",
          "miles" : "10235085"
        },
        "orbiting_body" : "Earth"
      } ],
      "orbital_data" : {
        "orbit_id" : "61",
        "orbit_determination_date" : "2017-04-06 09:25:43",
        "orbit_uncertainty" : "0",
        "minimum_orbit_intersection" : ".078411",
        "jupiter_tisserand_invariant" : "3.476",
        "epoch_osculation" : "2458000.5",
        "eccentricity" : ".6886183138967675",
        "semi_major_axis" : "2.017984306895917",
        "inclination" : "6.230435508035438",
        "ascending_node_longitude" : "259.8510183625158",
        "orbital_period" : "1047.068522295903",
        "perihelion_distance" : ".6283633560111137",
        "perihelion_argument" : "216.9534779949508",
        "aphelion_distance" : "3.407605257780721",
        "perihelion_time" : "2457974.218527873368",
        "mean_anomaly" : "9.036017953096044",
        "mean_motion" : ".3438170399876306",
        "equinox" : "J2000"
      }
    }, {
      "links" : {
        "self" : "https://api.nasa.gov/neo/rest/v1/neo/2363599?api_key=t0TVs3DtDT2H8Oy2Zy8m2eVrNsAVKAexjcZXUckd"
      },
      "neo_reference_id" : "2363599",
      "name" : "363599 (2004 FG11)",
      "nasa_jpl_url" : "http://ssd.jpl.nasa.gov/sbdb.cgi?sstr=2363599",
      "absolute_magnitude_h" : 21.0,
      "estimated_diameter" : {
        "kilometers" : {
          "estimated_diameter_min" : 0.1677084622,
          "estimated_diameter_max" : 0.3750075218
        },
        "meters" : {
          "estimated_diameter_min" : 167.7084621628,
          "estimated_diameter_max" : 375.0075217981
        },
        "miles" : {
          "estimated_diameter_min" : 0.1042091748,
          "estimated_diameter_max" : 0.2330187988
        },
        "feet" : {
          "estimated_diameter_min" : 550.2246310023,
          "estimated_diameter_max" : 1230.3396778159
        }
      },
      "is_potentially_hazardous_asteroid" : true,
      "close_approach_data" : [ {
        "close_approach_date" : "2006-04-08",
        "epoch_date_close_approach" : 1144479600000,
        "relative_velocity" : {
          "kilometers_per_second" : "26.7526674704",
          "kilometers_per_hour" : "96309.6028932683",
          "miles_per_hour" : "59843.0418644311"
        },
        "miss_distance" : {
          "astronomical" : "0.0996007984",
          "lunar" : "38.7447128296",
          "kilometers" : "14900068",
          "miles" : "9258473"
        },
        "orbiting_body" : "Earth"
      } ],
      "orbital_data" : {
        "orbit_id" : "60",
        "orbit_determination_date" : "2017-04-06 09:22:44",
        "orbit_uncertainty" : "0",
        "minimum_orbit_intersection" : ".0212101",
        "jupiter_tisserand_invariant" : "4.038",
        "epoch_osculation" : "2456484.5",
        "eccentricity" : ".7241131655030483",
        "semi_major_axis" : "1.588022608363079",
        "inclination" : "3.11472006671959",
        "ascending_node_longitude" : "84.51155304385449",
        "orbital_period" : "730.9428942320933",
        "perihelion_distance" : ".4381145305308823",
        "perihelion_argument" : "227.6711557332302",
        "aphelion_distance" : "2.737930686195275",
        "perihelion_time" : "2456806.803066432826",
        "mean_anomaly" : "201.2610549587269",
        "mean_motion" : ".4925145354593059",
        "equinox" : "J2000"
      }
    } ]
  }
}